{"fetched_at":"2026-03-29T16:36:15Z","count":15609,"tles":[{"name":"STARLINK-4724","line1":"1 53702U 22107C   26087.88476015  .00014095  00000+0  90212-3 0  9996","line2":"2 53702  53.2163 142.8539 0001132  69.0117 291.0996 15.08830189197996","category":"Starlink"}]}