{
  "norad_id": 53702,
  "name": "STARLINK-4724",
  "history": [
    {
      "epoch": "2026-03-28T21:14:03.276960Z",
      "apogee_km": 540.5564848833737,
      "perigee_km": 538.9902699739241,
      "latitude_deg": -1.2303472254827306e-05,
      "longitude_deg": -1.9585584659003243,
      "height_km": 540.3888921629541,
      "semi_major_axis_km": 6917.910377428649,
      "eccentricity": 0.0001132,
      "inclination_deg": 53.2163,
      "raan_deg": 142.8539,
      "arg_perigee_deg": 69.0117,
      "mean_anomaly_deg": 291.0996,
      "mean_motion_rev_day": 15.08830189
    }
  ]
}